{"type": "FeatureCollection", "features": [ {"type": "Feature", "properties": {"norad_id": 31012, "name": "FENGYUN 1C DEB", "group": "fengyun-1c-debris", "lat": -77.95400853475107, "lon": 12.53187385235613, "alt_km": 747.9805293800928, "timestamp": "2025-12-07T20:38:14.343711+00:00", "meta": {"OBJECT_NAME": "FENGYUN 1C DEB", "OBJECT_ID": "1999-025BDE", "EPOCH": "2025-12-07T04:59:25.164096", "MEAN_MOTION": 14.27854014, "ECCENTRICITY": 0.00813184, "INCLINATION": 98.9114, "RA_OF_ASC_NODE": 239.1958, "ARG_OF_PERICENTER": 267.68, "MEAN_ANOMALY": 244.8794, "EPHEMERIS_TYPE": 0, "CLASSIFICATION_TYPE": "U", "NORAD_CAT_ID": 31012, "ELEMENT_SET_NO": 999, "REV_AT_EPOCH": 97668, "BSTAR": 0.00036009898, "MEAN_MOTION_DOT": 8.76e-06, "MEAN_MOTION_DDOT": 0}, "tle": {"line1": "1 31012U 99025BDE 25341.20793014  .00000876  00000+0  36010-3 0  9996", "line2": "2 31012  98.9114 239.1958 0081318 267.6800 244.8794 14.27854014976688"}}, "geometry": {"type": "Point", "coordinates": [12.53187385235613, -77.95400853475107]}}, {"type": "Feature", "properties": {"norad_id": 31014, "name": "FENGYUN 1C DEB", "group": "fengyun-1c-debris", "lat": -44.60457503274294, "lon": -33.512926046438345, "alt_km": 924.7681747310862, "timestamp": "2025-12-07T20:38:14.343720+00:00", "meta": {"OBJECT_NAME": "FENGYUN 1C DEB", "OBJECT_ID": "1999-025BDG", "EPOCH": "2025-12-07T03:58:32.171232", "MEAN_MOTION": 13.98484877, "ECCENTRICITY": 0.00875006, "INCLINATION": 98.8672, "RA_OF_ASC_NODE": 316.959, "ARG_OF_PERICENTER": 208.8044, "MEAN_ANOMALY": 211.7806, "EPHEMERIS_TYPE": 0, "CLASSIFICATION_TYPE": "U", "NORAD_CAT_ID": 31014, "ELEMENT_SET_NO": 999, "REV_AT_EPOCH": 95758, "BSTAR": 0.00043806341, "MEAN_MOTION_DOT": 6.05e-06, "MEAN_MOTION_DDOT": 0}, "tle": {"line1": "1 31014U 99025BDG 25341.16565013  .00000605  00000+0  43806-3 0  9990", "line2": "2 31014  98.8672 316.9590 0087500 208.8044 211.7806 13.98484877957588"}}, "geometry": {"type": "Point", "coordinates": [-33.512926046438345, -44.60457503274294]}}, {"type": "Feature", "properties": {"norad_id": 31016, "name": "FENGYUN 1C DEB", "group": "fengyun-1c-debris", "lat": -44.536349454492715, "lon": 169.43332917609763, "alt_km": 760.5451678110703, "timestamp": "2025-12-07T20:38:14.343730+00:00", "meta": {"OBJECT_NAME": "FENGYUN 1C DEB", "OBJECT_ID": "1999-025BDJ", "EPOCH": "2025-12-03T08:13:01.747776", "MEAN_MOTION": 14.30468358, "ECCENTRICITY": 0.0112189, "INCLINATION": 98.4374, "RA_OF_ASC_NODE": 353.4483, "ARG_OF_PERICENTER": 302.1809, "MEAN_ANOMALY": 73.5512, "EPHEMERIS_TYPE": 0, "CLASSIFICATION_TYPE": "U", "NORAD_CAT_ID": 31016, "ELEMENT_SET_NO": 999, "REV_AT_EPOCH": 97336, "BSTAR": 0.00042529, "MEAN_MOTION_DOT": 1.141e-05, "MEAN_MOTION_DDOT": 0}, "tle": {"line1": "1 31016U 99025BDJ 25337.34238134  .00001141  00000+0  42529-3 0  9995", "line2": "2 31016  98.4374 353.4483 0112189 302.1809  73.5512 14.30468358973366"}}, "geometry": {"type": "Point", "coordinates": [169.43332917609763, -44.536349454492715]}}, {"type": "Feature", "properties": {"norad_id": 31017, "name": "FENGYUN 1C DEB", "group": "fengyun-1c-debris", "lat": -43.90014909365027, "lon": 139.71637808063798, "alt_km": 932.1965057311572, "timestamp": "2025-12-07T20:38:14.343740+00:00", "meta": {"OBJECT_NAME": "FENGYUN 1C DEB", "OBJECT_ID": "1999-025BDK", "EPOCH": "2025-12-06T04:38:35.153952", "MEAN_MOTION": 14.08805775, "ECCENTRICITY": 0.0113514, "INCLINATION": 98.68, "RA_OF_ASC_NODE": 326.565, "ARG_OF_PERICENTER": 8.6706, "MEAN_ANOMALY": 49.7246, "EPHEMERIS_TYPE": 0, "CLASSIFICATION_TYPE": "U", "NORAD_CAT_ID": 31017, "ELEMENT_SET_NO": 999, "REV_AT_EPOCH": 96204, "BSTAR": 0.00075837839, "MEAN_MOTION_DOT": 1.346e-05, "MEAN_MOTION_DDOT": 0}, "tle": {"line1": "1 31017U 99025BDK 25340.19346243  .00001346  00000+0  75838-3 0  9990", "line2": "2 31017  98.6800 326.5650 0113514   8.6706  49.7246 14.08805775962042"}}, "geometry": {"type": "Point", "coordinates": [139.71637808063798, -43.90014909365027]}}, {"type": "Feature", "properties": {"norad_id": 31018, "name": "FENGYUN 1C DEB", "group": "fengyun-1c-debris", "lat": -52.91985723929838, "lon": 80.70136383229024, "alt_km": 884.7072425768638, "timestamp": "2025-12-07T20:38:14.343750+00:00", "meta": {"OBJECT_NAME": "FENGYUN 1C DEB", "OBJECT_ID": "1999-025BDL", "EPOCH": "2025-12-06T12:41:32.234784", "MEAN_MOTION": 14.16858937, "ECCENTRICITY": 0.00596175, "INCLINATION": 99.0259, "RA_OF_ASC_NODE": 67.2102, "ARG_OF_PERICENTER": 143.2629, "MEAN_ANOMALY": 217.2653, "EPHEMERIS_TYPE": 0, "CLASSIFICATION_TYPE": "U", "NORAD_CAT_ID": 31018, "ELEMENT_SET_NO": 999, "REV_AT_EPOCH": 95967, "BSTAR": 0.0034216843, "MEAN_MOTION_DOT": 6.939e-05, "MEAN_MOTION_DDOT": 0}, "tle": {"line1": "1 31018U 99025BDL 25340.52884531  .00006939  00000+0  34217-2 0  9993", "line2": "2 31018  99.0259  67.2102 0059617 143.2629 217.2653 14.16858937959676"}}, "geometry": {"type": "Point", "coordinates": [80.70136383229024, -52.91985723929838]}}, {"type": "Feature", "properties": {"norad_id": 31019, "name": "FENGYUN 1C DEB", "group": "fengyun-1c-debris", "lat": 73.05220997445332, "lon": 31.631175715981943, "alt_km": 2649.6180401906904, "timestamp": "2025-12-07T20:38:14.343760+00:00", "meta": {"OBJECT_NAME": "FENGYUN 1C DEB", "OBJECT_ID": "1999-025BDM", "EPOCH": "2025-12-06T19:46:46.488288", "MEAN_MOTION": 11.82957686, "ECCENTRICITY": 0.11189634, "INCLINATION": 98.7021, "RA_OF_ASC_NODE": 180.7817, "ARG_OF_PERICENTER": 294.848, "MEAN_ANOMALY": 78.8585, "EPHEMERIS_TYPE": 0, "CLASSIFICATION_TYPE": "U", "NORAD_CAT_ID": 31019, "ELEMENT_SET_NO": 999, "REV_AT_EPOCH": 55111, "BSTAR": 0.0052564036, "MEAN_MOTION_DOT": 1.948e-05, "MEAN_MOTION_DDOT": 0}, "tle": {"line1": "1 31019U 99025BDM 25340.82414917  .00001948  00000+0  52564-2 0  9994", "line2": "2 31019  98.7021 180.7817 1118963 294.8480  78.8585 11.82957686551116"}}, "geometry": {"type": "Point", "coordinates": [31.631175715981943, 73.05220997445332]}}, {"type": "Feature", "properties": {"norad_id": 31021, "name": "FENGYUN 1C DEB", "group": "fengyun-1c-debris", "lat": 31.566505543664253, "lon": -82.65450131772914, "alt_km": 702.3076549058105, "timestamp": "2025-12-07T20:38:14.343770+00:00", "meta": {"OBJECT_NAME": "FENGYUN 1C DEB", "OBJECT_ID": "1999-025BDP", "EPOCH": "2025-11-23T02:39:04.527648", "MEAN_MOTION": 14.74941254, "ECCENTRICITY": 0.0268991, "INCLINATION": 98.348, "RA_OF_ASC_NODE": 76.9426, "ARG_OF_PERICENTER": 304.648, "MEAN_ANOMALY": 52.9635, "EPHEMERIS_TYPE": 0, "CLASSIFICATION_TYPE": "U", "NORAD_CAT_ID": 31021, "ELEMENT_SET_NO": 999, "REV_AT_EPOCH": 73143, "BSTAR": 0.00041319973, "MEAN_MOTION_DOT": 4.94e-05, "MEAN_MOTION_DDOT": 0}, "tle": {"line1": "1 31021U 99025BDP 25327.11046907  .00004940  00000+0  41320-3 0  9998", "line2": "2 31021  98.3480  76.9426 0268991 304.6480  52.9635 14.74941254731434"}}, "geometry": {"type": "Point", "coordinates": [-82.65450131772914, 31.566505543664253]}}, {"type": "Feature", "properties": {"norad_id": 31022, "name": "FENGYUN 1C DEB", "group": "fengyun-1c-debris", "lat": 80.31687419001359, "lon": 145.94406689412392, "alt_km": 864.1146720893703, "timestamp": "2025-12-07T20:38:14.343799+00:00", "meta": {"OBJECT_NAME": "FENGYUN 1C DEB", "OBJECT_ID": "1999-025BDQ", "EPOCH": "2025-12-06T09:40:27.451200", "MEAN_MOTION": 13.90437931, "ECCENTRICITY": 0.01097407, "INCLINATION": 99.5169, "RA_OF_ASC_NODE": 223.9109, "ARG_OF_PERICENTER": 138.7666, "MEAN_ANOMALY": 222.1845, "EPHEMERIS_TYPE": 0, "CLASSIFICATION_TYPE": "U", "NORAD_CAT_ID": 31022, "ELEMENT_SET_NO": 999, "REV_AT_EPOCH": 61920, "BSTAR": 0.00070045227, "MEAN_MOTION_DOT": 8.68e-06, "MEAN_MOTION_DDOT": 0}, "tle": {"line1": "1 31022U 99025BDQ 25340.40309550  .00000868  00000+0  70045-3 0  9993", "line2": "2 31022  99.5169 223.9109 0109740 138.7666 222.1845 13.90437931619205"}}, "geometry": {"type": "Point", "coordinates": [145.94406689412392, 80.31687419001359]}}, {"type": "Feature", "properties": {"norad_id": 31024, "name": "FENGYUN 1C DEB", "group": "fengyun-1c-debris", "lat": 27.462452534542855, "lon": 79.83323062158898, "alt_km": 768.8643422922914, "timestamp": "2025-12-07T20:38:14.343810+00:00", "meta": {"OBJECT_NAME": "FENGYUN 1C DEB", "OBJECT_ID": "1999-025BDS", "EPOCH": "2025-12-06T05:03:20.333664", "MEAN_MOTION": 14.20847233, "ECCENTRICITY": 0.00748561, "INCLINATION": 99.0414, "RA_OF_ASC_NODE": 253.3995, "ARG_OF_PERICENTER": 143.1573, "MEAN_ANOMALY": 217.4779, "EPHEMERIS_TYPE": 0, "CLASSIFICATION_TYPE": "U", "NORAD_CAT_ID": 31024, "ELEMENT_SET_NO": 999, "REV_AT_EPOCH": 96611, "BSTAR": 0.00049997444, "MEAN_MOTION_DOT": 1.066e-05, "MEAN_MOTION_DDOT": 0}, "tle": {"line1": "1 31024U 99025BDS 25340.21065201  .00001066  00000+0  49997-3 0  9999", "line2": "2 31024  99.0414 253.3995 0074856 143.1573 217.4779 14.20847233966113"}}, "geometry": {"type": "Point", "coordinates": [79.83323062158898, 27.462452534542855]}}, {"type": "Feature", "properties": {"norad_id": 31025, "name": "FENGYUN 1C DEB", "group": "fengyun-1c-debris", "lat": -9.87296671796969, "lon": -26.301394632533547, "alt_km": 726.8304650741447, "timestamp": "2025-12-07T20:38:14.343820+00:00", "meta": {"OBJECT_NAME": "FENGYUN 1C DEB", "OBJECT_ID": "1999-025BDT", "EPOCH": "2025-12-07T05:28:07.771008", "MEAN_MOTION": 14.20521805, "ECCENTRICITY": 0.01734931, "INCLINATION": 98.58, "RA_OF_ASC_NODE": 331.5793, "ARG_OF_PERICENTER": 28.741, "MEAN_ANOMALY": 332.3194, "EPHEMERIS_TYPE": 0, "CLASSIFICATION_TYPE": "U", "NORAD_CAT_ID": 31025, "ELEMENT_SET_NO": 999, "REV_AT_EPOCH": 64287, "BSTAR": 0.0012507545, "MEAN_MOTION_DOT": 3.084e-05, "MEAN_MOTION_DDOT": 0}, "tle": {"line1": "1 31025U 99025BDT 25341.22786772  .00003084  00000+0  12508-2 0  9994", "line2": "2 31025  98.5800 331.5793 0173493  28.7410 332.3194 14.20521805642873"}}, "geometry": {"type": "Point", "coordinates": [-26.301394632533547, -9.87296671796969]}}]}